STARLINK-37315          
1 68816U 26089Q   26117.60055396 -.00794353  22195-3 -13025-2 0  9993
2 68816  97.2856 322.7574 0001627  94.5214 265.6252 16.03232808   729
