{
  "norad_id": 68816,
  "name": "STARLINK-37315",
  "history": [
    {
      "epoch": "2026-04-27T14:24:47.862144Z",
      "apogee_km": 266.55366302617585,
      "perigee_km": 264.3918324142687,
      "latitude_deg": -1.3330613923167047e-06,
      "longitude_deg": -109.03006043298181,
      "height_km": 268.7612106106889,
      "semi_major_axis_km": 6643.609747720222,
      "eccentricity": 0.0001627,
      "inclination_deg": 97.2856,
      "raan_deg": 322.7574,
      "arg_perigee_deg": 94.5214,
      "mean_anomaly_deg": 265.6252,
      "mean_motion_rev_day": 16.03232808
    }
  ]
}